{
  "links" : {
    "next" : "https://api.nasa.gov/neo/rest/v1/feed?start_date=2006-01-09&end_date=2006-01-09&detailed=true&api_key=t0TVs3DtDT2H8Oy2Zy8m2eVrNsAVKAexjcZXUckd",
    "prev" : "https://api.nasa.gov/neo/rest/v1/feed?start_date=2006-01-07&end_date=2006-01-07&detailed=true&api_key=t0TVs3DtDT2H8Oy2Zy8m2eVrNsAVKAexjcZXUckd",
    "self" : "https://api.nasa.gov/neo/rest/v1/feed?start_date=2006-01-08&end_date=2006-01-08&detailed=true&api_key=t0TVs3DtDT2H8Oy2Zy8m2eVrNsAVKAexjcZXUckd"
  },
  "element_count" : 8,
  "near_earth_objects" : {
    "2006-01-08" : [ {
      "links" : {
        "self" : "https://api.nasa.gov/neo/rest/v1/neo/3314252?api_key=t0TVs3DtDT2H8Oy2Zy8m2eVrNsAVKAexjcZXUckd"
      },
      "neo_reference_id" : "3314252",
      "name" : "(2006 BG99)",
      "nasa_jpl_url" : "http://ssd.jpl.nasa.gov/sbdb.cgi?sstr=3314252",
      "absolute_magnitude_h" : 25.7,
      "estimated_diameter" : {
        "kilometers" : {
          "estimated_diameter_min" : 0.0192555078,
          "estimated_diameter_max" : 0.0430566244
        },
        "meters" : {
          "estimated_diameter_min" : 19.2555078188,
          "estimated_diameter_max" : 43.0566244241
        },
        "miles" : {
          "estimated_diameter_min" : 0.0119648141,
          "estimated_diameter_max" : 0.0267541378
        },
        "feet" : {
          "estimated_diameter_min" : 63.1742402722,
          "estimated_diameter_max" : 141.2618956756
        }
      },
      "is_potentially_hazardous_asteroid" : false,
      "close_approach_data" : [ {
        "close_approach_date" : "2006-01-08",
        "epoch_date_close_approach" : 1136707200000,
        "relative_velocity" : {
          "kilometers_per_second" : "4.1010633397",
          "kilometers_per_hour" : "14763.828022874",
          "miles_per_hour" : "9173.6685845463"
        },
        "miss_distance" : {
          "astronomical" : "0.0461284104",
          "lunar" : "17.9439525604",
          "kilometers" : "6900712",
          "miles" : "4287903.5"
        },
        "orbiting_body" : "Earth"
      } ],
      "orbital_data" : {
        "orbit_id" : "8",
        "orbit_determination_date" : "2017-04-06 09:09:13",
        "orbit_uncertainty" : "8",
        "minimum_orbit_intersection" : ".0381646",
        "jupiter_tisserand_invariant" : "4.677",
        "epoch_osculation" : "2453765.5",
        "eccentricity" : ".2867087450877484",
        "semi_major_axis" : "1.413099612608328",
        "inclination" : "4.684310844412845",
        "ascending_node_longitude" : "131.456782860004",
        "orbital_period" : "613.5607828145821",
        "perihelion_distance" : "1.007951595993411",
        "perihelion_argument" : "330.0374663153696",
        "aphelion_distance" : "1.818247629223245",
        "perihelion_time" : "2453737.041379074628",
        "mean_anomaly" : "16.69778092096539",
        "mean_motion" : ".5867389345658226",
        "equinox" : "J2000"
      }
    }, {
      "links" : {
        "self" : "https://api.nasa.gov/neo/rest/v1/neo/3117468?api_key=t0TVs3DtDT2H8Oy2Zy8m2eVrNsAVKAexjcZXUckd"
      },
      "neo_reference_id" : "3117468",
      "name" : "(2002 FT6)",
      "nasa_jpl_url" : "http://ssd.jpl.nasa.gov/sbdb.cgi?sstr=3117468",
      "absolute_magnitude_h" : 22.5,
      "estimated_diameter" : {
        "kilometers" : {
          "estimated_diameter_min" : 0.0840533402,
          "estimated_diameter_max" : 0.1879489824
        },
        "meters" : {
          "estimated_diameter_min" : 84.0533402073,
          "estimated_diameter_max" : 187.9489824394
        },
        "miles" : {
          "estimated_diameter_min" : 0.0522283081,
          "estimated_diameter_max" : 0.1167860472
        },
        "feet" : {
          "estimated_diameter_min" : 275.7655606856,
          "estimated_diameter_max" : 616.6305395464
        }
      },
      "is_potentially_hazardous_asteroid" : false,
      "close_approach_data" : [ {
        "close_approach_date" : "2006-01-08",
        "epoch_date_close_approach" : 1136707200000,
        "relative_velocity" : {
          "kilometers_per_second" : "13.0409727534",
          "kilometers_per_hour" : "46947.5019121561",
          "miles_per_hour" : "29171.3519520283"
        },
        "miss_distance" : {
          "astronomical" : "0.3969006033",
          "lunar" : "154.3943328857",
          "kilometers" : "59375484",
          "miles" : "36894216"
        },
        "orbiting_body" : "Earth"
      } ],
      "orbital_data" : {
        "orbit_id" : "22",
        "orbit_determination_date" : "2017-06-21 06:17:20",
        "orbit_uncertainty" : "1",
        "minimum_orbit_intersection" : ".0413485",
        "jupiter_tisserand_invariant" : "6.026",
        "epoch_osculation" : "2458000.5",
        "eccentricity" : ".462699943687126",
        "semi_major_axis" : ".9884238521030382",
        "inclination" : "9.488402611056026",
        "ascending_node_longitude" : "188.5128520742066",
        "orbital_period" : "358.9328872268388",
        "perihelion_distance" : ".5310801913959503",
        "perihelion_argument" : "226.7025553557057",
        "aphelion_distance" : "1.445767512810126",
        "perihelion_time" : "2458025.544584674616",
        "mean_anomaly" : "334.8809574053776",
        "mean_motion" : "1.00297301476442",
        "equinox" : "J2000"
      }
    }, {
      "links" : {
        "self" : "https://api.nasa.gov/neo/rest/v1/neo/3295786?api_key=t0TVs3DtDT2H8Oy2Zy8m2eVrNsAVKAexjcZXUckd"
      },
      "neo_reference_id" : "3295786",
      "name" : "(2005 UL)",
      "nasa_jpl_url" : "http://ssd.jpl.nasa.gov/sbdb.cgi?sstr=3295786",
      "absolute_magnitude_h" : 19.0,
      "estimated_diameter" : {
        "kilometers" : {
          "estimated_diameter_min" : 0.4212646106,
          "estimated_diameter_max" : 0.9419763057
        },
        "meters" : {
          "estimated_diameter_min" : 421.2646105562,
          "estimated_diameter_max" : 941.9763057186
        },
        "miles" : {
          "estimated_diameter_min" : 0.2617616123,
          "estimated_diameter_max" : 0.5853167591
        },
        "feet" : {
          "estimated_diameter_min" : 1382.1017848971,
          "estimated_diameter_max" : 3090.4735428537
        }
      },
      "is_potentially_hazardous_asteroid" : false,
      "close_approach_data" : [ {
        "close_approach_date" : "2006-01-08",
        "epoch_date_close_approach" : 1136707200000,
        "relative_velocity" : {
          "kilometers_per_second" : "20.0605702063",
          "kilometers_per_hour" : "72218.0527428424",
          "miles_per_hour" : "44873.4894945734"
        },
        "miss_distance" : {
          "astronomical" : "0.4019636715",
          "lunar" : "156.3638763428",
          "kilometers" : "60132912",
          "miles" : "37364860"
        },
        "orbiting_body" : "Earth"
      } ],
      "orbital_data" : {
        "orbit_id" : "21",
        "orbit_determination_date" : "2017-04-06 09:10:12",
        "orbit_uncertainty" : "1",
        "minimum_orbit_intersection" : ".10297",
        "jupiter_tisserand_invariant" : "3.600",
        "epoch_osculation" : "2458000.5",
        "eccentricity" : ".717042101421794",
        "semi_major_axis" : "1.87813280398785",
        "inclination" : "7.82123357859616",
        "ascending_node_longitude" : "291.321887308186",
        "orbital_period" : "940.1299194947782",
        "perihelion_distance" : ".5314325114671957",
        "perihelion_argument" : "213.6778229948137",
        "aphelion_distance" : "3.224833096508505",
        "perihelion_time" : "2458462.049241794615",
        "mean_anomaly" : "183.2608880958136",
        "mean_motion" : ".3829257983763164",
        "equinox" : "J2000"
      }
    } ]
  }
}